{"type": "FeatureCollection", "features": [{"type": "Feature", "properties": {"norad_id": 24876, "name": "GPS BIIR-2  (PRN 13)", "group": "gnss", "lat": 47.57641015973817, "lon": 153.10080159152906, "alt_km": 19920.88290329336, "timestamp": "2025-12-26T06:43:29.752839+00:00", "meta": {"OBJECT_NAME": "GPS BIIR-2  (PRN 13)", "OBJECT_ID": "1997-035A", "EPOCH": "2025-12-25T04:43:59.116800", "MEAN_MOTION": 2.00563692, "ECCENTRICITY": 0.0096849, "INCLINATION": 55.901, "RA_OF_ASC_NODE": 105.3817, "ARG_OF_PERICENTER": 56.9385, "MEAN_ANOMALY": 303.9881, "EPHEMERIS_TYPE": 0, "CLASSIFICATION_TYPE": "U", "NORAD_CAT_ID": 24876, "ELEMENT_SET_NO": 999, "REV_AT_EPOCH": 20846, "BSTAR": 0, "MEAN_MOTION_DOT": 2.8e-07, "MEAN_MOTION_DDOT": 0}, "tle": {"line1": "1 24876U 97035A   25359.19721200  .00000028  00000+0  00000+0 0  9995", "line2": "2 24876  55.9010 105.3817 0096849  56.9385 303.9881  2.00563692208461"}}, "geometry": {"type": "Point", "coordinates": [153.10080159152906, 47.57641015973817]}}, {"type": "Feature", "properties": {"norad_id": 26360, "name": "GPS BIIR-4  (PRN 20)", "group": "gnss", "lat": 20.62104824788355, "lon": -168.95078591778315, "alt_km": 20176.84108492341, "timestamp": "2025-12-26T06:43:29.752888+00:00", "meta": {"OBJECT_NAME": "GPS BIIR-4  (PRN 20)", "OBJECT_ID": "2000-025A", "EPOCH": "2025-12-25T13:30:32.127840", "MEAN_MOTION": 2.00566541, "ECCENTRICITY": 0.003889, "INCLINATION": 55.0528, "RA_OF_ASC_NODE": 26.3193, "ARG_OF_PERICENTER": 243.209, "MEAN_ANOMALY": 113.834, "EPHEMERIS_TYPE": 0, "CLASSIFICATION_TYPE": "U", "NORAD_CAT_ID": 26360, "ELEMENT_SET_NO": 999, "REV_AT_EPOCH": 18778, "BSTAR": 0, "MEAN_MOTION_DOT": -5.6e-07, "MEAN_MOTION_DDOT": 0}, "tle": {"line1": "1 26360U 00025A   25359.56287185 -.00000056  00000+0  00000+0 0  9990", "line2": "2 26360  55.0528  26.3193 0038890 243.2090 113.8340  2.00566541187786"}}, "geometry": {"type": "Point", "coordinates": [-168.95078591778315, 20.62104824788355]}}, {"type": "Feature", "properties": {"norad_id": 26407, "name": "GPS BIIR-5  (PRN 22)", "group": "gnss", "lat": -3.4500106511933972, "lon": -140.38845127870636, "alt_km": 19983.298583070067, "timestamp": "2025-12-26T06:43:29.752907+00:00", "meta": {"OBJECT_NAME": "GPS BIIR-5  (PRN 22)", "OBJECT_ID": "2000-040A", "EPOCH": "2025-12-25T00:58:38.180352", "MEAN_MOTION": 2.00568081, "ECCENTRICITY": 0.01253464, "INCLINATION": 54.8881, "RA_OF_ASC_NODE": 222.0798, "ARG_OF_PERICENTER": 302.0038, "MEAN_ANOMALY": 237.7094, "EPHEMERIS_TYPE": 0, "CLASSIFICATION_TYPE": "U", "NORAD_CAT_ID": 26407, "ELEMENT_SET_NO": 999, "REV_AT_EPOCH": 18645, "BSTAR": 0, "MEAN_MOTION_DOT": 6.7e-07, "MEAN_MOTION_DDOT": 0}, "tle": {"line1": "1 26407U 00040A   25359.04071968  .00000067  00000+0  00000+0 0  9993", "line2": "2 26407  54.8881 222.0798 0125346 302.0038 237.7094  2.00568081186458"}}, "geometry": {"type": "Point", "coordinates": [-140.38845127870636, -3.4500106511933972]}}, {"type": "Feature", "properties": {"norad_id": 27663, "name": "GPS BIIR-8  (PRN 16)", "group": "gnss", "lat": 37.21104183060491, "lon": 9.608658347259064, "alt_km": 20105.406735132932, "timestamp": "2025-12-26T06:43:29.752923+00:00", "meta": {"OBJECT_NAME": "GPS BIIR-8  (PRN 16)", "OBJECT_ID": "2003-005A", "EPOCH": "2025-12-24T14:50:30.961824", "MEAN_MOTION": 2.00570207, "ECCENTRICITY": 0.01478624, "INCLINATION": 54.9207, "RA_OF_ASC_NODE": 221.9058, "ARG_OF_PERICENTER": 51.9747, "MEAN_ANOMALY": 318.7946, "EPHEMERIS_TYPE": 0, "CLASSIFICATION_TYPE": "U", "NORAD_CAT_ID": 27663, "ELEMENT_SET_NO": 999, "REV_AT_EPOCH": 16781, "BSTAR": 0, "MEAN_MOTION_DOT": 6.6e-07, "MEAN_MOTION_DDOT": 0}, "tle": {"line1": "1 27663U 03005A   25358.61841391  .00000066  00000+0  00000+0 0  9998", "line2": "2 27663  54.9207 221.9058 0147862  51.9747 318.7946  2.00570207167815"}}, "geometry": {"type": "Point", "coordinates": [9.608658347259064, 37.21104183060491]}}, {"type": "Feature", "properties": {"norad_id": 28190, "name": "GPS BIIR-11 (PRN 19)", "group": "gnss", "lat": -50.33668358982419, "lon": -134.98242218768945, "alt_km": 20339.23915523131, "timestamp": "2025-12-26T06:43:29.752937+00:00", "meta": {"OBJECT_NAME": "GPS BIIR-11 (PRN 19)", "OBJECT_ID": "2004-009A", "EPOCH": "2025-12-25T00:56:53.599200", "MEAN_MOTION": 2.00560295, "ECCENTRICITY": 0.01085715, "INCLINATION": 54.9745, "RA_OF_ASC_NODE": 282.7233, "ARG_OF_PERICENTER": 167.849, "MEAN_ANOMALY": 305.251, "EPHEMERIS_TYPE": 0, "CLASSIFICATION_TYPE": "U", "NORAD_CAT_ID": 28190, "ELEMENT_SET_NO": 999, "REV_AT_EPOCH": 15945, "BSTAR": 0, "MEAN_MOTION_DOT": -2.6e-07, "MEAN_MOTION_DDOT": 0}, "tle": {"line1": "1 28190U 04009A   25359.03950925 -.00000026  00000+0  00000+0 0  9997", "line2": "2 28190  54.9745 282.7233 0108571 167.8490 305.2510  2.00560295159459"}}, "geometry": {"type": "Point", "coordinates": [-134.98242218768945, -50.33668358982419]}}, {"type": "Feature", "properties": {"norad_id": 28474, "name": "GPS BIIR-13 (PRN 02)", "group": "gnss", "lat": -7.611494951153169, "lon": -33.47623079005577, "alt_km": 19836.055184241202, "timestamp": "2025-12-26T06:43:29.752950+00:00", "meta": {"OBJECT_NAME": "GPS BIIR-13 (PRN 02)", "OBJECT_ID": "2004-045A", "EPOCH": "2025-12-25T06:51:33.526944", "MEAN_MOTION": 2.00570039, "ECCENTRICITY": 0.0170989, "INCLINATION": 55.2344, "RA_OF_ASC_NODE": 331.9013, "ARG_OF_PERICENTER": 309.8108, "MEAN_ANOMALY": 41.6127, "EPHEMERIS_TYPE": 0, "CLASSIFICATION_TYPE": "U", "NORAD_CAT_ID": 28474, "ELEMENT_SET_NO": 999, "REV_AT_EPOCH": 15493, "BSTAR": 0, "MEAN_MOTION_DOT": -5.9e-07, "MEAN_MOTION_DDOT": 0}, "tle": {"line1": "1 28474U 04045A   25359.28580471 -.00000059  00000+0  00000+0 0  9990", "line2": "2 28474  55.2344 331.9013 0170989 309.8108  41.6127  2.00570039154932"}}, "geometry": {"type": "Point", "coordinates": [-33.47623079005577, -7.611494951153169]}}, {"type": "Feature", "properties": {"norad_id": 28874, "name": "GPS BIIRM-1 (PRN 17)", "group": "gnss", "lat": -39.471590074848464, "lon": -115.00684913193408, "alt_km": 19849.084564604807, "timestamp": "2025-12-26T06:43:29.752963+00:00", "meta": {"OBJECT_NAME": "GPS BIIRM-1 (PRN 17)", "OBJECT_ID": "2005-038A", "EPOCH": "2025-12-24T20:45:31.120992", "MEAN_MOTION": 2.00577585, "ECCENTRICITY": 0.0131256, "INCLINATION": 55.0211, "RA_OF_ASC_NODE": 280.2128, "ARG_OF_PERICENTER": 293.8377, "MEAN_ANOMALY": 72.9738, "EPHEMERIS_TYPE": 0, "CLASSIFICATION_TYPE": "U", "NORAD_CAT_ID": 28874, "ELEMENT_SET_NO": 999, "REV_AT_EPOCH": 14834, "BSTAR": 0, "MEAN_MOTION_DOT": -2.3e-07, "MEAN_MOTION_DDOT": 0}, "tle": {"line1": "1 28874U 05038A   25358.86494353 -.00000023  00000+0  00000+0 0  9994", "line2": "2 28874  55.0211 280.2128 0131256 293.8377  72.9738  2.00577585148340"}}, "geometry": {"type": "Point", "coordinates": [-115.00684913193408, -39.471590074848464]}}, {"type": "Feature", "properties": {"norad_id": 28899, "name": "INMARSAT 4-F2 (SOUTHPAN/PRN 122)", "group": "gnss", "lat": -4.397331912794468, "lon": -20.50245935044301, "alt_km": 35782.73185187924, "timestamp": "2025-12-26T06:43:29.752977+00:00", "meta": {"OBJECT_NAME": "INMARSAT 4-F2 (SOUTHPAN/PRN 122)", "OBJECT_ID": "2005-044A", "EPOCH": "2025-12-24T22:20:32.961120", "MEAN_MOTION": 1.00270677, "ECCENTRICITY": 0.00024672, "INCLINATION": 4.8665, "RA_OF_ASC_NODE": 43.7125, "ARG_OF_PERICENTER": 230.3576, "MEAN_ANOMALY": 298.2665, "EPHEMERIS_TYPE": 0, "CLASSIFICATION_TYPE": "U", "NORAD_CAT_ID": 28899, "ELEMENT_SET_NO": 999, "REV_AT_EPOCH": 7377, "BSTAR": 0, "MEAN_MOTION_DOT": -2.41e-06, "MEAN_MOTION_DDOT": 0}, "tle": {"line1": "1 28899U 05044A   25358.93093705 -.00000241  00000+0  00000+0 0  9994", "line2": "2 28899   4.8665  43.7125 0002467 230.3576 298.2665  1.00270677 73776"}}, "geometry": {"type": "Point", "coordinates": [-20.50245935044301, -4.397331912794468]}}, {"type": "Feature", "properties": {"norad_id": 29486, "name": "GPS BIIRM-2 (PRN 31)", "group": "gnss", "lat": -25.053365394679364, "lon": -2.4610204207160877, "alt_km": 20451.776156914337, "timestamp": "2025-12-26T06:43:29.752990+00:00", "meta": {"OBJECT_NAME": "GPS BIIRM-2 (PRN 31)", "OBJECT_ID": "2006-042A", "EPOCH": "2025-12-24T23:42:55.072224", "MEAN_MOTION": 2.00553643, "ECCENTRICITY": 0.01072754, "INCLINATION": 54.6955, "RA_OF_ASC_NODE": 158.2549, "ARG_OF_PERICENTER": 52.2355, "MEAN_ANOMALY": 305.6317, "EPHEMERIS_TYPE": 0, "CLASSIFICATION_TYPE": "U", "NORAD_CAT_ID": 29486, "ELEMENT_SET_NO": 999, "REV_AT_EPOCH": 14089, "BSTAR": 0, "MEAN_MOTION_DOT": 9.7e-07, "MEAN_MOTION_DDOT": 0}, "tle": {"line1": "1 29486U 06042A   25358.98813741  .00000097  00000+0  00000+0 0  9999", "line2": "2 29486  54.6955 158.2549 0107275  52.2355 305.6317  2.00553643140898"}}, "geometry": {"type": "Point", "coordinates": [-2.4610204207160877, -25.053365394679364]}}, {"type": "Feature", "properties": {"norad_id": 29601, "name": "GPS BIIRM-3 (PRN 12)", "group": "gnss", "lat": -54.94966574859564, "lon": 129.6762277180909, "alt_km": 20420.668395456156, "timestamp": "2025-12-26T06:43:29.753003+00:00", "meta": {"OBJECT_NAME": "GPS BIIRM-3 (PRN 12)", "OBJECT_ID": "2006-052A", "EPOCH": "2025-12-23T21:56:47.372352", "MEAN_MOTION": 2.0057433, "ECCENTRICITY": 0.00880015, "INCLINATION": 54.9684, "RA_OF_ASC_NODE": 220.9547, "ARG_OF_PERICENTER": 87.5747, "MEAN_ANOMALY": 273.5181, "EPHEMERIS_TYPE": 0, "CLASSIFICATION_TYPE": "U", "NORAD_CAT_ID": 29601, "ELEMENT_SET_NO": 999, "REV_AT_EPOCH": 13989, "BSTAR": 0, "MEAN_MOTION_DOT": 6.7e-07, "MEAN_MOTION_DDOT": 0}, "tle": {"line1": "1 29601U 06052A   25357.91443718  .00000067  00000+0  00000+0 0  9991", "line2": "2 29601  54.9684 220.9547 0088001  87.5747 273.5181  2.00574330139891"}}, "geometry": {"type": "Point", "coordinates": [129.6762277180909, -54.94966574859564]}}]}